TDRS 3                  
1 19548U 88091B   24102.50886987 -.00000309  00000+0  00000+0 0  9994
2 19548  13.2147 346.3929 0037829 341.8664   5.9535  1.00280724117374
FLTSATCOM 8 (USA 46)    
1 20253U 89077A   24101.61279692 -.00000376  00000+0  00000+0 0  9998
2 20253  12.6560 355.9705 0006463  24.7173 164.8266  1.00281827252620
SKYNET 4C               
1 20776U 90079A   24100.83244039  .00000117  00000+0  00000+0 0  9994
2 20776  13.5981 355.2733 0002861  18.1329 158.2141  1.00276843122884
TDRS 5                  
1 21639U 91054B   24102.14636174 -.00000307  00000+0  00000+0 0  9990
2 21639  14.1729 359.6029 0003544 354.8266 186.5448  1.00627952119729
TDRS 6                  
1 22314U 93003B   24102.22209642 -.00000304  00000+0  00000+0 0  9999
2 22314  14.1621   2.9047 0008434 142.9631  88.1471  1.00270013114386
UFO 2 (USA 95)          
1 22787U 93056A   24101.96091222  .00000117  00000+0  00000+0 0  9995
2 22787  11.6387   7.7139 0005465  25.4374 181.1117  1.00272698110665
USA 99 (MILSTAR-1 1)    
1 22988U 94009A   24101.42447549 -.00000204  00000+0  00000+0 0  9993
2 22988  16.4066  36.1596 0002586 324.7936 260.9948  1.00270981 24966
UFO 4 (USA 108)         
1 23467U 95003A   24102.51577076 -.00000030  00000+0  00000+0 0  9998
2 23467   9.7453  15.6789 0002402  37.9369 144.5773  1.00271249106951
AMSC 1                  
1 23553U 95019A   24102.37939484 -.00000102  00000+0  00000+0 0  9990
2 23553  12.5702  21.8083 0005791 347.4110 219.9810  1.00272903106170
TDRS 7                  
1 23613U 95035B   24101.73323314 -.00000212  00000+0  00000+0 0  9995
2 23613  13.7108 353.7062 0027801  62.8306 131.7722  1.00274159105251
USA 115 (MILSTAR-1 2)   
1 23712U 95060A   24101.43297789 -.00000027  00000+0  00000+0 0  9990
2 23712  13.7773   9.5133 0002489 350.0590 235.3933  1.00270886 24883
INMARSAT 3-F1           
1 23839U 96020A   24101.65830973 -.00000111  00000+0  00000+0 0  9993
2 23839   8.9262  53.4154 0004106 345.8241  31.3824  1.00001570102282
INMARSAT 3-F2           
1 24307U 96053A   24102.51507641  .00000055  00000+0  00000+0 0  9995
2 24307   8.0359  61.5335 0007205 343.7362 215.5173  0.99981479100986
INMARSAT 3-F3           
1 24674U 96070A   24101.87028726 -.00000365  00000+0  00000+0 0  9996
2 24674   8.5787  56.7590 0004441 322.6151 260.3785  0.99998484 99936
GALAXY 25 (G-25)        
1 24812U 97026A   24101.94563295  .00000077  00000+0  00000+0 0  9994
2 24812   5.3693  76.8105 0011709 317.4130 211.2932  0.99089830 98327
INTELSAT 5 (IS-5)       
1 24916U 97046A   24102.12208244 -.00000069  00000+0  00000+0 0  9994
2 24916   8.6583  56.0165 0001529 291.8654  62.0373  1.00272585 97624
AMC-3 (GE-3)            
1 24936U 97050A   24101.85988133 -.00000266  00000+0  00000+0 0  9991
2 24936   6.1814  72.8654 0002940 316.5717  47.6779  1.00271183 44442
USA 134                 
1 25019U 97065A   24101.43660434 -.00000068  00000+0  00000+0 0  9995
2 25019  11.8307  27.2943 0003998 331.7599 244.9912  1.00275067 24951
INMARSAT 3-F5           
1 25153U 98006B   24102.19854549 -.00000296  00000+0  00000+0 0  9999
2 25153   7.8958  60.6479 0004744 318.6275 198.0412  1.00267656 95897
ASTRA 2A                
1 25462U 98050A   24102.52992934  .00000062  00000+0  00000+0 0  9999
2 25462   5.0794  78.2028 0003212 294.1246  75.8645  1.00273734 93755
SKYNET 4E               
1 25639U 99009B   24102.06855021 -.00000042  00000+0  00000+0 0  9993
2 25639  11.5991  13.4278 0004319  32.9494 176.8073  1.00273706 92027
ABS-6                   
1 25924U 99053A   24101.83429670 -.00000127  00000+0  00000+0 0  9994
2 25924   0.0618  81.4962 0002791 314.1607 263.2229  1.00271577 89845
UFO 10 (USA 146)        
1 25967U 99063A   24102.15584719 -.00000195  00000+0  00000+0 0  9999
2 25967   9.4492  30.9288 0002012 316.0480 246.1459  1.00270182 89342
GALAXY 11 (G-11)        
1 26038U 99071A   24102.12208244 -.00000061  00000+0  00000+0 0  9993
2 26038   4.6867  80.0832 0001165 221.3195 108.6348  1.00271600 89081
USA 148                 
1 26052U 00001A   24101.61422359  .00000030  00000+0  00000+0 0  9997
2 26052  10.6031  38.1902 0001797 298.0652 264.2844  1.00272116 24968
ASIASTAR                
1 26107U 00016A   24102.39618382 -.00000340  00000+0  00000+0 0  9998
2 26107   7.2501  66.1785 0004349 314.8431  66.7006  1.00273595 88160
USA 149 (DSP 20)        
1 26356U 00024A   24098.49077362  .00000094  00000+0  00000+0 0  9990
2 26356  12.5668  17.2564 0001132 270.8030 280.2807  1.00288915 24887
TDRS 8                  
1 26388U 00034A   24102.50535410  .00000089  00000+0  00000+0 0  9991
2 26388  11.4372  37.7780 0003491 289.4905 247.4078  1.00279724 87181
INTELSAT 9 (IS-9)       
1 26451U 00043A   24101.63730056 -.00000144  00000+0  00000+0 0  9991
2 26451   8.6423  56.2165 0003064 297.2721  56.2504  1.00373881 36148
NSS-11 (AAP-1)          
1 26554U 00059A   24101.83760358  .00000018  00000+0  00000+0 0  9991
2 26554   0.0650  73.1658 0002814 310.4724 293.4309  1.00272078 33295
USA 153                 
1 26575U 00065A   24101.70466073 -.00000332  00000+0  00000+0 0  9994
2 26575  10.2399  41.4718 0001529 332.7110 213.2096  1.00266137 24937
AMC-6 (GE-6)            
1 26580U 00067A   24102.23630843  .00000097  00000+0  00000+0 0  9996
2 26580   0.0514  63.4675 0002863 325.4399 117.0918  1.00272935 85995
INTELSAT 1R (IS-1R)     
1 26608U 00072A   24101.76224204 -.00000144  00000+0  00000+0 0  9994
2 26608   6.0930  73.3646 0001500 331.0746 226.5567  1.00272374 33321
ANIK F1                 
1 26624U 00076A   24102.50396750 -.00000069  00000+0  00000+0 0  9991
2 26624   3.1331  84.5107 0006744 327.0435 220.8292  1.00272150 85739
USA 157 (MILSTAR-2 2)   
1 26715U 01009A   24102.47063255  .00000005  00000+0  00000+0 0  9995
2 26715  10.6787  24.1863 0002762 355.3392 225.7533  1.00272232 23655
INTELSAT 10 (IS-10)     
1 26766U 01019A   24101.76024051 -.00000258  00000+0  00000+0 0  9995
2 26766   7.1644  67.2890 0002986 309.1469 243.4226  1.00157593 37622
INTELSAT 901 (IS-901)   
1 26824U 01024A   24101.86875981 -.00000209  00000+0  00000+0 0  9999
2 26824   0.0218 121.7318 0000689 253.0476 110.0401  1.00271501 14995
ASTRA 2C                
1 26853U 01025A   24102.43246851 -.00000265  00000+0  00000+0 0  9996
2 26853   6.2042  72.6881 0002567 303.2847 267.3389  1.00269349 83585
USA 159 (DSP 21)        
1 26880U 01033A   24101.22803646 -.00000304  00000+0  00000+0 0  9996
2 26880  12.0335  21.7210 0001437 243.1773 326.7998  1.00280283 24964
INTELSAT 902 (IS-902)   
1 26900U 01039A   24101.86423464 -.00000288  00000+0  00000+0 0  9992
2 26900   4.0897  81.3989 0003320 333.8714  45.3413  1.00272127 82701
USA 164 (MILSTAR-2 3)   
1 27168U 02001A   24102.52201029  .00000015  00000+0  00000+0 0  9991
2 27168  10.2395  26.1603 0100609 358.0596  21.2524  1.00245555 23666
INTELSAT 904 (IS-904)   
1 27380U 02007A   24101.65361052 -.00000219  00000+0  00000+0 0  9996
2 27380   4.9102  78.5888 0002958 298.8851  27.6874  1.00271718 43768
DIRECTV 5 (TEMPO 1)     
1 27426U 02023A   24101.63759837 -.00000062  00000+0  00000+0 0  9991
2 27426   2.8277  85.2268 0003353 302.4820 291.0460  1.00272015 80124
INTELSAT 905 (IS-905)   
1 27438U 02027A   24102.29884372 -.00000191  00000+0  00000+0 0  9997
2 27438   4.7370  79.2442 0002677 298.8088 265.0289  1.00270760 79977
GALAXY 3C (G-3C)        
1 27445U 02030A   24102.49964547 -.00000159  00000+0  00000+0 0  9998
2 27445   1.6714  87.7237 0001999  10.7091 186.7762  1.00271237 79964
INTELSAT 906 (IS-906)   
1 27513U 02041A   24102.17316469  .00000008  00000+0  00000+0 0  9997
2 27513   3.7651  82.6586 0003129 299.0680 304.6365  1.00271034 78972
TDRS 10                 
1 27566U 02055A   24101.59354775  .00000081  00000+0  00000+0 0  9998
2 27566   9.4377  45.8631 0007270 325.8422 230.1028  1.00270029 78234
NIMIQ 2                 
1 27632U 02062A   24101.55604418 -.00000072  00000+0  00000+0 0  9999
2 27632   7.5743  64.8443 0005087 314.8695 270.5096  1.00270029 36181
USA 167                 
1 27691U 03008A   24102.49259664  .00000045  00000+0  00000+0 0  9997
2 27691   9.3656  50.0013 0001315 273.6174 283.8708  1.00273191 23639
USA 169 (MILSTAR-2 4)   
1 27711U 03012A   24101.64077257 -.00000264  00000+0  00000+0 0  9991
2 27711  11.1297  35.8440 0100119 359.7770 186.5374  1.00270700 24956
ASIASAT 4               
1 27718U 03014A   24101.83194709 -.00000228  00000+0  00000+0 0  9993
2 27718   2.6541  85.7510 0002609 297.5269 263.3080  1.00270403 37300
HELLAS-SAT 2            
1 27811U 03020A   24101.65752654 -.00000088  00000+0  00000+0 0  9997
2 27811   5.3528  77.2445 0005463 286.8218  62.0080  1.00271646 34848
THURAYA-2               
1 27825U 03026A   24102.00049578  .00000120  00000+0  00000+0 0  9998
2 27825   7.6287  34.3133 0003385 314.0529 255.5168  1.00271140 76344
OPTUS C1                
1 27831U 03028B   24101.83360052 -.00000156  00000+0  00000+0 0  9990
2 27831   4.8765  78.9259 0005930 298.2866 278.1608  1.00272146 45061
GALAXY 23 (G-23)        
1 27854U 03034A   24101.63542280  .00000006  00000+0  00000+0 0  9998
2 27854   1.1306  89.8518 0002779 294.6495 282.7118  1.00272314 75744
USA 170                 
1 27875U 03040A   24102.05604816  .00000088  00000+0  00000+0 0  9999
2 27875   8.7950  54.9588 0003115   1.3115 179.8645  1.00269902 23633
GALAXY 13 (HORIZONS-1)  
1 27954U 03044A   24101.64209545  .00000125  00000+0  00000+0 0  9997
2 27954   0.0181 237.8738 0001833 289.1305 113.5219  1.00280776 38576
YAMAL 202               
1 28089U 03053A   24101.83516694 -.00000085  00000+0  00000+0 0  9990
2 28089   4.3179  80.4941 0003352 305.3763 277.8377  1.00272272 74701
UFO 11 (USA 174)        
1 28117U 03057A   24102.39035330 -.00000109  00000+0  00000+0 0  9998
2 28117   7.9642  36.9208 0003109 359.5102  19.5652  1.00272425 74434
USA 176 (DSP 22)        
1 28158U 04004A   24102.32103448 -.00000224  00000+0  00000+0 0  9993
2 28158  10.9739  31.4343 0000780 271.1652 100.1878  1.00267223 23623
